{
    "links": {
        "self": "http://www.neowsapp.com/rest/v1/neo/3555172?api_key=iIulBulltgU6a56xZRHN4H3l9WmuAYTsLGpBGhQ2"
    },
    "id": "3555172",
    "neo_reference_id": "3555172",
    "name": "(2011 AB37)",
    "designation": "2011 AB37",
    "nasa_jpl_url": "http://ssd.jpl.nasa.gov/sbdb.cgi?sstr=3555172",
    "absolute_magnitude_h": 25.9,
    "estimated_diameter": {
        "kilometers": {
            "estimated_diameter_min": 0.0175612318,
            "estimated_diameter_max": 0.0392681082
        },
        "meters": {
            "estimated_diameter_min": 17.561231848,
            "estimated_diameter_max": 39.2681081809
        },
        "miles": {
            "estimated_diameter_min": 0.0109120402,
            "estimated_diameter_max": 0.0244000636
        },
        "feet": {
            "estimated_diameter_min": 57.6155918963,
            "estimated_diameter_max": 128.8323800441
        }
    },
    "is_potentially_hazardous_asteroid": false,
    "close_approach_data": [
        {
            "close_approach_date": "1951-01-07",
            "close_approach_date_full": "1951-Jan-07 05:16",
            "epoch_date_close_approach": -599078640000,
            "relative_velocity": {
                "kilometers_per_second": "14.3337480935",
                "kilometers_per_hour": "51601.4931367771",
                "miles_per_hour": "32063.1611104602"
            },
            "miss_distance": {
                "astronomical": "0.263443047",
                "lunar": "102.479345283",
                "kilometers": "39410518.69750989",
                "miles": "24488560.768980882"
            },
            "orbiting_body": "Earth"
        },
        {
            "close_approach_date": "1952-07-10",
            "close_approach_date_full": "1952-Jul-10 18:15",
            "epoch_date_close_approach": -551511900000,
            "relative_velocity": {
                "kilometers_per_second": "17.6616122698",
                "kilometers_per_hour": "63581.8041713876",
                "miles_per_hour": "39507.2604863825"
            },
            "miss_distance": {
                "astronomical": "0.3950228009",
                "lunar": "153.6638695501",
                "kilometers": "59094569.616074083",
                "miles": "36719662.8460370254"
            },
            "orbiting_body": "Earth"
        },
        {
            "close_approach_date": "2011-01-19",
            "close_approach_date_full": "2011-Jan-19 09:08",
            "epoch_date_close_approach": 1295428080000,
            "relative_velocity": {
                "kilometers_per_second": "7.5036028104",
                "kilometers_per_hour": "27012.9701175425",
                "miles_per_hour": "16784.8091266474"
            },
            "miss_distance": {
                "astronomical": "0.0242783835",
                "lunar": "9.4442911815",
                "kilometers": "3631994.458643145",
                "miles": "2256816.706619601"
            },
            "orbiting_body": "Earth"
        },
        {
            "close_approach_date": "2071-01-07",
            "close_approach_date_full": "2071-Jan-07 17:28",
            "epoch_date_close_approach": 3187877280000,
            "relative_velocity": {
                "kilometers_per_second": "14.527262233",
                "kilometers_per_hour": "52298.1440387863",
                "miles_per_hour": "32496.0328889892"
            },
            "miss_distance": {
                "astronomical": "0.2704520156",
                "lunar": "105.2058340684",
                "kilometers": "40459045.470966772",
                "miles": "25140085.0944225736"
            },
            "orbiting_body": "Earth"
        }
    ],
    "orbital_data": {
        "orbit_id": "6",
        "orbit_determination_date": "2017-04-06 08:54:58",
        "first_observation_date": "2011-01-13",
        "last_observation_date": "2011-01-14",
        "data_arc_in_days": 1,
        "observations_used": 19,
        "orbit_uncertainty": "8",
        "minimum_orbit_intersection": ".0186146",
        "jupiter_tisserand_invariant": "5.563",
        "epoch_osculation": "2455575.5",
        "eccentricity": ".2086110536893843",
        "semi_major_axis": "1.115376421640736",
        "inclination": "7.70173704447972",
        "ascending_node_longitude": "113.1485561379066",
        "orbital_period": "430.2596466070834",
        "perihelion_distance": ".8826965710619674",
        "perihelion_argument": "76.22356885668496",
        "aphelion_distance": "1.348056272219506",
        "perihelion_time": "2455638.870310075205",
        "mean_anomaly": "306.9778032707141",
        "mean_motion": ".8367040758734107",
        "equinox": "J2000",
        "orbit_class": {
            "orbit_class_type": "APO",
            "orbit_class_description": "Near-Earth asteroid orbits which cross the Earth’s orbit similar to that of 1862 Apollo",
            "orbit_class_range": "a (semi-major axis) > 1.0 AU; q (perihelion) < 1.017 AU"
        }
    },
    "is_sentry_object": false
}